      2.10          N: GNSS NAV DATA                        RINEX VERSION / TYPE
fic2rin                                 04/30/2024 00:59:02 PGM / RUN BY / DATE
                                                            END OF HEADER
8  24  4 29  1 59 44.0  .149537343532D-03  .217141860048D-10  .000000000000D+00
     .270000000000D+02  .106531250000D+03  .452768859640D-08  .142695520947D+01
     .557862222195D-05  .946037750691D-02  .574439764023D-05  .515362679291D+04
     .935840000000D+05 -.558793544769D-07  .144276974451D+01  .987201929092D-07
     .953402695083D+00  .264875000000D+03  .357140776050D+00 -.816462580372D-08
    -.432160858377D-10  .100000000000D+01  .231200000000D+04  .000000000000D+00
     .240000000000D+01  .000000000000D+00  .465661287308D-08  .270000000000D+02
     .864000000000D+05  .400000000000D+01
32 24  4 29  8  0  0.0 -.618421006948D-03 -.113686837722D-12  .000000000000D+00
     .660000000000D+02 -.439687500000D+02  .461769234542D-08 -.970263507667D+00
    -.207871198654D-05  .776124116965D-02  .899471342564D-05  .515366485786D+04
     .115200000000D+06  .204890966415D-07 -.167558134376D+01  .206753611565D-06
     .961362059309D+00  .206687500000D+03 -.213691720190D+01 -.790247202682D-08
     .483591572101D-09  .100000000000D+01  .231200000000D+04  .000000000000D+00
     .240000000000D+01  .000000000000D+00  .931322574615D-09  .660000000000D+02
     .108000000000D+06  .400000000000D+01
24 24  4 29  8  0  0.0 -.464593060315D-03 -.397903932026D-11  .000000000000D+00
     .510000000000D+02 -.625000000000D+01  .541058251534D-08  .275994182474D+01
    -.508502125740D-06  .152260190807D-01  .645034015179D-05  .515370975685D+04
     .115200000000D+06 -.204890966415D-07 -.714031502827D+00 -.223517417908D-06
     .933940585940D+00  .237875000000D+03  .975503618784D+00 -.804390648956D-08
    -.178578867098D-10  .100000000000D+01  .231200000000D+04  .000000000000D+00
     .240000000000D+01  .000000000000D+00  .232830643654D-08  .510000000000D+02
     .108000000000D+06  .400000000000D+01
29 24  4 29  8  0  0.0 -.600283499807D-03  .136424205266D-11  .000000000000D+00
     .880000000000D+02  .109250000000D+03  .410124226177D-08 -.166402796286D+01
     .560842454433D-05  .284617778379D-02  .586919486523D-05  .515360735321D+04
     .115200000000D+06 -.204890966415D-07  .155187532325D+01  .409781932831D-07
     .971536714530D+00  .273750000000D+03  .251264638999D+01 -.791461538979D-08
     .107147320259D-10  .100000000000D+01  .231200000000D+04  .000000000000D+00
     .240000000000D+01  .000000000000D+00 -.977888703346D-08  .880000000000D+02
     .108000000000D+06  .400000000000D+01
16 24  4 29  8  0  0.0 -.304757617414D-03  .966338120634D-11  .000000000000D+00
     .510000000000D+02  .529687500000D+02  .443982779379D-08 -.768440091631D+00
     .281631946564D-05  .139429938281D-01  .899657607079D-05  .515376868248D+04
     .115200000000D+06  .875443220139D-07  .515576190881D+00  .240281224251D-06
     .962462009857D+00  .206875000000D+03  .836987357963D+00 -.797176062726D-08
    -.526450500205D-09  .100000000000D+01  .231200000000D+04  .000000000000D+00
     .240000000000D+01  .000000000000D+00 -.102445483208D-07  .510000000000D+02
     .108000000000D+06  .400000000000D+01
8  24  4 29  8  0  0.0  .150007195771D-03  .217141860048D-10  .000000000000D+00
     .560000000000D+02  .108375000000D+03  .436839624695D-08 -.170323587022D+01
     .556930899620D-05  .946053816006D-02  .679492950439D-05  .515362849808D+04
     .115200000000D+06 -.372529029846D-07  .144259593668D+01 -.149011611938D-06
     .953404077541D+00  .245468750000D+03  .357106012727D+00 -.796390315710D-08
     .357157734196D-11  .100000000000D+01  .231200000000D+04  .000000000000D+00
     .240000000000D+01  .000000000000D+00  .465661287308D-08  .560000000000D+02
     .108000000000D+06  .400000000000D+01
30 24  4 29  8  0  0.0 -.398148316890D-03  .568434188608D-11  .000000000000D+00
     .510000000000D+02 -.253125000000D+01  .553808782644D-08  .158838307883D+01
    -.335276126862D-07  .708131969441D-02  .707432627678D-05  .515364687920D+04
     .115200000000D+06 -.150874257088D-06 -.616453044144D+00  .139698386192D-06
     .935474130778D+00  .234718750000D+03 -.248120654983D+01 -.842999400023D-08
    -.460733477113D-10  .100000000000D+01  .231200000000D+04  .000000000000D+00
     .240000000000D+01  .000000000000D+00  .372529029846D-08  .510000000000D+02
     .108000000000D+06  .400000000000D+01
21 24  4 29  8  0  0.0  .124590005726D-03 -.216004991671D-11  .000000000000D+00
     .570000000000D+02  .167187500000D+02  .445447126089D-08 -.182238643405D+01
     .106915831566D-05  .251873726957D-01  .286102294922D-05  .515369991875D+04
     .115200000000D+06 -.575557351112D-06  .243287682599D+01 -.763684511185D-07
     .961715450577D+00  .333718750000D+03 -.582100525315D+00 -.837963475971D-08
     .213580325049D-09  .100000000000D+01  .231200000000D+04  .000000000000D+00
     .240000000000D+01  .000000000000D+00 -.102445483208D-07  .570000000000D+02
     .108000000000D+06  .400000000000D+01
17 24  4 29  8  0  0.0  .709696207196D-03 -.181898940355D-11  .000000000000D+00
     .370000000000D+02  .984062500000D+02  .417481675502D-08 -.167963902940D+01
     .529922544956D-05  .134110614890D-01  .603869557381D-05  .515372039032D+04
     .115200000000D+06 -.540167093277D-07  .153693430538D+01  .344589352608D-06
     .969128761611D+00  .271718750000D+03 -.132358386584D+01 -.798283251702D-08
    -.832177520677D-10  .100000000000D+01  .231200000000D+04  .000000000000D+00
     .240000000000D+01  .000000000000D+00 -.111758708954D-07  .370000000000D+02
     .108000000000D+06  .400000000000D+01
22 24  4 29  8  0  0.0 -.641262158751D-05 -.545696821064D-11  .000000000000D+00
     .890000000000D+02  .480000000000D+02  .450554481688D-08 -.116646597258D+01
     .249966979027D-05  .143401813693D-01  .919587910175D-05  .515370919418D+04
     .115200000000D+06 -.292435288429D-06  .518872671964D+00 -.409781932831D-07
     .961771354529D+00  .204250000000D+03 -.113595634937D+01 -.810640909305D-08
    -.391444876679D-09  .100000000000D+01  .231200000000D+04  .000000000000D+00
     .240000000000D+01  .000000000000D+00 -.111758708954D-07  .890000000000D+02
     .108000000000D+06  .400000000000D+01
26 24  4 29  8  0  0.0  .160153489560D-03 -.534328137292D-11  .000000000000D+00
     .760000000000D+02  .346562500000D+02  .525057585042D-08  .155047156119D+00
     .189431011677D-05  .885441119317D-02  .842101871967D-05  .515362581635D+04
     .115200000000D+06  .502914190292D-07  .349527890805D+00  .931322574615D-07
     .931707113798D+00  .197718750000D+03  .540754037993D+00 -.832570394184D-08
    -.550380068396D-09  .100000000000D+01  .231200000000D+04  .000000000000D+00
     .240000000000D+01  .000000000000D+00  .698491930962D-08  .760000000000D+02
     .108000000000D+06  .400000000000D+01
13 24  4 29  8  0  0.0  .646553002298D-03  .295585778076D-11  .000000000000D+00
     .790000000000D+02 -.242187500000D+02  .441375527920D-08 -.197279029550D+01
    -.137276947498D-05  .794946285896D-02  .843405723572D-05  .515365277863D+04
     .115200000000D+06  .875443220139D-07 -.152454562312D+01 -.968575477600D-07
     .970916707904D+00  .219937500000D+03  .923699862413D+00 -.767210528827D-08
     .494663461862D-09  .100000000000D+01  .231200000000D+04  .000000000000D+00
     .240000000000D+01  .000000000000D+00 -.116415321827D-07  .790000000000D+02
     .108000000000D+06  .400000000000D+01
19 24  4 29  8  0  0.0  .474907457829D-03  .534328137292D-11  .000000000000D+00
     .500000000000D+02  .842187500000D+02  .426982071231D-08  .331054960054D+00
     .419653952122D-05  .975586229470D-02  .566057860851D-05  .515370396614D+04
     .115200000000D+06  .126659870148D-06  .158129401188D+01 -.119209289551D-06
     .968301589694D+00  .277968750000D+03  .252067986418D+01 -.816069706865D-08
    -.104290058385D-09  .100000000000D+01  .231200000000D+04  .000000000000D+00
     .240000000000D+01  .000000000000D+00 -.153668224812D-07  .500000000000D+02
     .108000000000D+06  .400000000000D+01
27 24  4 29  8  0  0.0 -.213701277971D-04 -.204636307899D-11  .000000000000D+00
     .700000000000D+01  .117812500000D+03  .418696011798D-08 -.162342381576D+01
     .607594847679D-05  .125645506196D-01  .632368028164D-05  .515368373871D+04
     .115200000000D+06  .221654772758D-06  .146883782116D+01 -.160187482834D-06
     .962394279676D+00  .258062500000D+03  .787462430045D+00 -.783782647693D-08
    -.407159816984D-10  .100000000000D+01  .231200000000D+04  .000000000000D+00
     .340000000000D+01  .000000000000D+00  .186264514923D-08  .263000000000D+03
     .108000000000D+06  .400000000000D+01
18 24  4 29  8  0  0.0 -.602532643825D-03 -.625277607469D-11  .000000000000D+00
     .590000000000D+02 -.793750000000D+01  .420660379336D-08  .260945554541D+01
    -.333413481712D-06  .400769500993D-02  .154972076416D-05  .515361515427D+04
     .115200000000D+06 -.987201929092D-07  .254203759770D+01 -.298023223877D-07
     .974634057352D+00  .356562500000D+03 -.305063910867D+01 -.817855495536D-08
     .267868300647D-10  .100000000000D+01  .231200000000D+04  .000000000000D+00
     .240000000000D+01  .000000000000D+00 -.838190317154D-08  .315000000000D+03
     .108000000000D+06  .400000000000D+01
10 24  4 29  8  0  0.0 -.151428394020D-04 -.545696821064D-11  .000000000000D+00
     .164000000000D+03 -.110125000000D+03  .389873382648D-08  .284197149769D+00
    -.571087002754D-05  .931087532081D-02  .684335827827D-05  .515369188881D+04
     .115200000000D+06 -.391155481339D-07 -.271214266763D+01  .193715095520D-06
     .983879275367D+00  .262281250000D+03 -.236898281533D+01 -.790354350003D-08
     .753602819154D-10  .100000000000D+01  .231200000000D+04  .000000000000D+00
     .240000000000D+01  .000000000000D+00  .232830643654D-08  .164000000000D+03
     .108000000000D+06  .400000000000D+01
